{"spkid": "50508169", "covariance": {"epoch": "2456011.5", "data": [["3.850845748211297E-14", "-6.092239467047638E-14", "1.274084084647401E-12", "7.845584801245226E-13", "5.169059893756135E-12", "-7.27070994149687E-13"], ["-6.092239467047638E-14", "9.641701518129234E-14", "-1.905495913991051E-12", "-1.19397189372919E-12", "-8.188918563170983E-12", "1.090864559762935E-12"], ["1.274084084647401E-12", "-1.905495913991051E-12", "4.436530349127419E-10", "1.8341139240241E-10", "1.567921721509528E-10", "-2.114390690575882E-10"], ["7.845584801245226E-13", "-1.19397189372919E-12", "1.8341139240241E-10", "4.806531381587607E-10", "-2.922602722636275E-10", "-3.562312331027817E-10"], ["5.169059893756135E-12", "-8.188918563170983E-12", "1.567921721509528E-10", "-2.922602722636275E-10", "1.096118766971833E-9", "1.748158381812697E-10"], ["-7.27070994149687E-13", "1.090864559762935E-12", "-2.114390690575882E-10", "-3.562312331027817E-10", "1.748158381812697E-10", "6.617812995041901E-10"]], "elements": [{"units": null, "title": "eccentricity", "value": ".7455994720804001", "sigma": 1.96235719180054e-07, "name": "e", "label": "e"}, {"units": "au", "title": "perihelion distance", "value": ".4104002803431695", "name": "q", "sigma": 3.10510893820639e-07, "label": "q"}, {"label": "tp", "sigma": 2.10630727794579e-05, "name": "tp", "title": "time of perihelion passage", "value": "2456044.981947350474", "units": "TDB"}, {"label": "node", "sigma": 2.19238030040128e-05, "name": "om", "units": "deg", "title": "longitude of the ascending node", "value": "154.790675401419"}, {"label": "peri", "value": "116.4416813442385", "title": "argument of perihelion", "units": "deg", "sigma": 3.31076844096931e-05, "name": "w"}, {"title": "inclination", "value": "11.90784121291061", "units": "deg", "name": "i", "sigma": 2.57251102913902e-05, "label": "i"}], "labels": ["e", "q", "tp", "node", "peri", "i"]}, "elements": [{"name": "e", "sigma": "1.9802E-7", "value": ".7454738116845614", "title": "eccentricity", "units": null, "label": "e"}, {"units": "au", "value": "1.612759500031329", "title": "semi-major axis", "sigma": "2.9206E-8", "name": "a", "label": "a"}, {"title": "perihelion distance", "value": ".4104895282124866", "units": "au", "name": "q", "sigma": "3.1326E-7", "label": "q"}, {"value": "11.96189351527492", "title": "inclination; angle with respect to x-y ecliptic plane", "units": "deg", "sigma": "2.5823E-5", "name": "i", "label": "i"}, {"value": "154.1963285545643", "title": "longitude of the ascending node", "units": "deg", "name": "om", "sigma": "2.154E-5", "label": "node"}, {"label": "peri", "name": "w", "sigma": "3.3272E-5", "units": "deg", "title": "argument of perihelion", "value": "117.0996516418527"}, {"sigma": "8.0825E-5", "name": "ma", "units": "deg", "title": "mean anomaly", "value": "320.401840317828", "label": "M"}, {"units": "TDB", "title": "time of perihelion passage", "value": "2461282.785884530783", "name": "tp", "sigma": ".00017017", "label": "tp"}, {"label": "period", "value": "748.0882613951034", "title": "sidereal orbital period", "units": "d", "sigma": "2.0321E-5", "name": "per"}, {"label": "n", "sigma": "1.3072E-8", "name": "n", "units": "deg/d", "title": "mean motion", "value": ".4812266393923079"}, {"units": "au", "title": "aphelion distance", "value": "2.815029471850171", "name": "ad", "sigma": "5.0978E-8", "label": "Q"}], "epoch": "2461200.5"}